NORAD_CAT_ID,OBJECT_NAME,OBJECT_TYPE,EPOCH,MEAN_MOTION,ECCENTRICITY,INCLINATION,RA_OF_ASC_NODE,ARG_OF_PERICENTER,MEAN_ANOMALY,BSTAR,MEAN_MOTION_DOT,MEAN_MOTION_DDOT,TLE_LINE0,TLE_LINE1,TLE_LINE2,SEMIMAJOR_AXIS,PERIOD,APOGEE,PERIGEE,DECAYED
53889.0,STARLINK-5031,PAYLOAD,2023-01-17 22:47:24,15.08825259,0.000118,53.2199,72.1849,101.3648,258.7477,-0.00020606,-3.564e-05,0.0,0 STARLINK-5031,1 53889U 22119D   23017.94958829 -.00003564  00000-0 -20606-3 0  9992,2 53889  53.2199  72.1849 0001180 101.3648 258.7477 15.08825259 18147,6917.925,95.438,540.607,538.974,0.0
53889.0,STARLINK-5031,PAYLOAD,2023-01-18 09:55:03,15.08860031,0.000123,53.2184,70.1036,100.6044,259.5087,0.00015725,2.217e-05,0.0,0 STARLINK-5031,1 53889U 22119D   23018.41323554  .00002217  00000-0  15725-3 0  9994,2 53889  53.2184  70.1036 0001230 100.6044 259.5087 15.08860031 18216,6917.819,95.436,540.535,538.8330000000001,0.0
53889.0,STARLINK-5031,PAYLOAD,2023-01-19 03:24:19,15.08823626,0.0001404,53.2184,66.8318,114.5278,245.5861,0.00026578,3.943e-05,0.0,0 STARLINK-5031,1 53889U 22119D   23019.14188966  .00003943  00000-0  26578-3 0  9996,2 53889  53.2184  66.8318 0001404 114.5278 245.5861 15.08823626 18323,6917.93,95.439,540.7669999999999,538.8240000000001,0.0
53889.0,STARLINK-5031,PAYLOAD,2023-01-19 09:45:51,15.08833921,0.0001351999999999,53.2189,65.6419,116.8466,243.2665,0.0003316,4.993e-05,0.0,0 STARLINK-5031,1 53889U 22119D   23019.40684262  .00004993  00000-0  33160-3 0  9996,2 53889  53.2189  65.6419 0001352 116.8466 243.2665 15.08833921 18789,6917.899,95.438,540.6990000000001,538.8290000000001,0.0
53889.0,STARLINK-5031,PAYLOAD,2023-01-20 09:36:38,15.088514000000002,0.0001177999999999,53.2177,61.1804,101.2974,258.8151,-6.3894e-05,-1.305e-05,0.0,0 STARLINK-5031,1 53889U 22119D   23020.40044705 -.00001305  00000-0 -63894-4 0  9994,2 53889  53.2177  61.1804 0001178 101.2974 258.8151 15.08851400 18934,6917.846,95.437,540.525,538.896,0.0
53889.0,STARLINK-5031,PAYLOAD,2023-01-20 19:08:57,15.08845913,0.000123,53.2186,59.3984,101.7137,258.3993,-0.00018559,-3.241e-05,0.0,0 STARLINK-5031,1 53889U 22119D   23020.79789287 -.00003241  00000-0 -18559-3 0  9995,2 53889  53.2186  59.3984 0001230 101.7137 258.3993 15.08845913 18578,6917.861999999999,95.437,540.578,538.876,0.0
53889.0,STARLINK-5031,PAYLOAD,2023-01-21 11:02:48,15.08852575,0.000131,53.2195,56.4235,102.684,257.4299,6.085700000000001e-06,-1.91e-06,0.0,0 STARLINK-5031,1 53889U 22119D   23021.46028069 -.00000191  00000-0  60857-5 0  9994,2 53889  53.2195  56.4235 0001310 102.6840 257.4299 15.08852575 18677,6917.842,95.437,540.613,538.8009999999999,0.0
53889.0,STARLINK-5031,PAYLOAD,2023-01-22 10:53:35,15.08843144,0.0001231999999999,53.2197,51.9647,93.3196,266.7937,2.6948e-05,1.41e-06,0.0,0 STARLINK-5031,1 53889U 22119D   23022.45388821  .00000141  00000-0  26948-4 0  9995,2 53889  53.2197  51.9647 0001232  93.3196 266.7937 15.08843144 18820,6917.871,95.437,540.5880000000001,538.883,0.0
53889.0,STARLINK-5031,PAYLOAD,2023-01-22 18:50:32,15.08835865,0.0001203,53.2184,50.473,85.2702,274.8428,-6.3785e-05,-1.303e-05,0.0,0 STARLINK-5031,1 53889U 22119D   23022.78509587 -.00001303  00000-0 -63785-4 0  9998,2 53889  53.2184  50.4730 0001203  85.2702 274.8428 15.08835865 18875,6917.893,95.438,540.59,538.9259999999999,0.0
53889.0,STARLINK-5031,PAYLOAD,2023-01-22 23:36:42,15.08817539,9.66e-05,53.2178,49.5814,88.7541,271.3561,5.1459e-05,5.31e-06,0.0,0 STARLINK-5031,1 53889U 22119D   23022.98382360  .00000531  00000-0  51459-4 0  9993,2 53889  53.2178  49.5814 0000966  88.7541 271.3561 15.08817539 18906,6917.9490000000005,95.439,540.482,539.146,0.0
53889.0,STARLINK-5031,PAYLOAD,2023-01-23 10:44:26,15.08813117,0.0001049,53.2208,47.5044,87.0233,273.088,-0.00024637,-4.204e-05,0.0,0 STARLINK-5031,1 53889U 22119D   23023.44752529 -.00004204  00000-0 -24637-3 0  9993,2 53889  53.2208  47.5044 0001049  87.0233 273.0880 15.08813117 18974,6917.963000000001,95.439,540.553,539.102,0.0
53889.0,STARLINK-5031,PAYLOAD,2023-01-23 18:41:20,15.08831461,0.000104,53.2202,46.0169,97.2211,262.8899,-0.00010027,-1.883e-05,0.0,0 STARLINK-5031,1 53889U 22119D   23023.77871067 -.00001883  00000-0 -10027-3 0  9996,2 53889  53.2202  46.0169 0001040  97.2211 262.8899 15.08831461 19025,6917.906,95.438,540.491,539.052,0.0
53889.0,STARLINK-5031,PAYLOAD,2023-01-24 01:02:52,15.08842737,0.0001065,53.2202,44.8256,89.06700000000001,271.0445,2.4744e-05,1.06e-06,0.0,0 STARLINK-5031,1 53889U 22119D   23024.04366225  .00000106  00000-0  24744-4 0  9999,2 53889  53.2202  44.8256 0001065  89.0670 271.0445 15.08842737 19064,6917.871999999999,95.437,540.474,539.0,0.0
53889.0,STARLINK-5031,PAYLOAD,2023-01-24 07:24:23,15.0885573,0.0001065999999999,53.2184,43.6371,102.328,257.7832,0.00012806,1.752e-05,0.0,0 STARLINK-5031,1 53889U 22119D   23024.30860921  .00001752  00000-0  12806-3 0  9993,2 53889  53.2184  43.6371 0001066 102.3280 257.7832 15.08855730 19108,6917.831999999999,95.437,540.435,538.96,0.0
53889.0,STARLINK-5031,PAYLOAD,2023-01-25 00:53:39,15.08837368,0.0001049,53.218,40.3673,95.6874,264.4238,0.00012382,1.683e-05,0.0,0 STARLINK-5031,1 53889U 22119D   23025.03725846  .00001683  00000-0  12382-3 0  9992,2 53889  53.2180  40.3673 0001049  95.6874 264.4238 15.08837368 19211,6917.888000000001,95.438,540.479,539.028,0.0
53889.0,STARLINK-5031,PAYLOAD,2023-01-25 07:15:11,15.08835562,0.0001039,53.218,39.1776,94.1122,265.9989,0.00011144,1.486e-05,0.0,0 STARLINK-5031,1 53889U 22119D   23025.30222045  .00001486  00000-0  11144-3 0  9991,2 53889  53.2180  39.1776 0001039  94.1122 265.9989 15.08835562 19673,6917.894,95.438,540.4780000000001,539.04,0.0
53889.0,STARLINK-5031,PAYLOAD,2023-01-25 18:22:53,15.08833746,0.0001215,53.2181,37.0969,83.5656,276.5475,0.00019223,2.772e-05,0.0,0 STARLINK-5031,1 53889U 22119D   23025.76590155  .00002772  00000-0  19223-3 0  9996,2 53889  53.2181  37.0969 0001215  83.5656 276.5475 15.08833746 19743,6917.9,95.438,540.605,538.924,0.0
53889.0,STARLINK-5031,PAYLOAD,2023-01-26 07:05:56,15.08878154,0.000112,53.218,34.7156,83.9676,276.1444,0.00017959,2.574e-05,0.0,0 STARLINK-5031,1 53889U 22119D   23026.29579129  .00002574  00000-0  17959-3 0  9997,2 53889  53.2180  34.7156 0001120  83.9676 276.1444 15.08878154 19402,6917.764,95.435,540.404,538.854,0.0
53889.0,STARLINK-5031,PAYLOAD,2023-01-26 22:59:47,15.08859106,0.0001077,53.2186,31.7434,91.1211,268.9905,0.00010975,1.46e-05,0.0,0 STARLINK-5031,1 53889U 22119D   23026.95819425  .00001460  00000-0  10975-3 0  9990,2 53889  53.2186  31.7434 0001077  91.1211 268.9905 15.08859106 19509,6917.821999999999,95.436,540.432,538.942,0.0
53889.0,STARLINK-5031,PAYLOAD,2023-01-27 10:07:32,15.08821668,0.0001288,53.2182,29.6613,94.1679,265.9461,-0.00019138,-3.331e-05,0.0,0 STARLINK-5031,1 53889U 22119D   23027.42190818 -.00003331  00000-0 -19138-3 0  9992,2 53889  53.2182  29.6613 0001288  94.1679 265.9461 15.08821668 19578,6917.936,95.439,540.692,538.91,0.0
53889.0,STARLINK-5031,PAYLOAD,2023-01-28 00:26:00,15.08827401,0.0001286,53.2189,26.9852,101.8103,258.3033,-0.00011356,-2.094e-05,0.0,0 STARLINK-5031,1 53889U 22119D   23028.01806562 -.00002094  00000-0 -11356-3 0  9997,2 53889  53.2189  26.9852 0001286 101.8103 258.3033 15.08827401 19668,6917.919,95.438,540.674,538.894,0.0
53889.0,STARLINK-5031,PAYLOAD,2023-01-28 09:58:18,15.08837609,0.0001287,53.2189,25.2014,102.6382,257.4754,-2.6552e-05,-7.1e-06,0.0,0 STARLINK-5031,1 53889U 22119D   23028.41549729 -.00000710  00000-0 -26552-4 0  9998,2 53889  53.2189  25.2014 0001287 102.6382 257.4754 15.08837609 19727,6917.888,95.438,540.643,538.862,0.0
53889.0,STARLINK-5031,PAYLOAD,2023-01-29 00:16:48,15.08808541,0.0001247,53.2191,22.5249,99.3191,260.7942,8.6174e-05,1.083e-05,0.0,0 STARLINK-5031,1 53889U 22119D   23029.01167203  .00001083  00000-0  86174-4 0  9996,2 53889  53.2191  22.5249 0001247  99.3191 260.7942 15.08808541 19815,6917.977,95.44,540.704,538.979,0.0
53889.0,STARLINK-5031,PAYLOAD,2023-01-29 22:32:12,15.08828359,0.0001265,53.2195,18.3604,101.2582,258.8552,8.0731e-05,9.97e-06,0.0,0 STARLINK-5031,1 53889U 22119D   23029.93903212  .00000997  00000-0  80731-4 0  9991,2 53889  53.2195  18.3604 0001265 101.2582 258.8552 15.08828359 20371,6917.916,95.438,540.656,538.906,0.0
53889.0,STARLINK-5031,PAYLOAD,2023-01-30 08:04:30,15.0884625,0.0001204,53.219,16.5774,95.0912,265.0218,0.00011702,1.575e-05,0.0,0 STARLINK-5031,1 53889U 22119D   23030.33646058  .00001575  00000-0  11702-3 0  9993,2 53889  53.2190  16.5774 0001204  95.0912 265.0218 15.08846250 20014,6917.861,95.437,540.559,538.893,0.0
53889.0,STARLINK-5031,PAYLOAD,2023-01-30 22:22:59,15.08835968,0.0001254,53.2196,13.9014,89.9453,270.1683,0.00012011,1.624e-05,0.0,0 STARLINK-5031,1 53889U 22119D   23030.93262734  .00001624  00000-0  12011-3 0  9993,2 53889  53.2196  13.9014 0001254  89.9453 270.1683 15.08835968 20102,6917.893,95.438,540.625,538.89,0.0
53889.0,STARLINK-5031,PAYLOAD,2023-01-31 07:55:17,15.08845728,0.0001245,53.2191,12.1169,93.0427,267.0708,0.00017748,2.538e-05,0.0,0 STARLINK-5031,1 53889U 22119D   23031.33005850  .00002538  00000-0  17748-3 0  9999,2 53889  53.2191  12.1169 0001245  93.0427 267.0708 15.08845728 20160,6917.863,95.437,540.589,538.867,0.0
53889.0,STARLINK-5031,PAYLOAD,2023-02-01 07:46:03,15.08854177,0.0001422,53.2193,7.6536,114.3958,245.7182,-2.4835e-05,-6.83e-06,0.0,0 STARLINK-5031,1 53889U 22119D   23032.32365534 -.00000683  00000-0 -24835-4 0  9994,2 53889  53.2193   7.6536 0001422 114.3958 245.7182 15.08854177 20732,6917.837,95.437,540.686,538.718,0.0
53889.0,STARLINK-5031,PAYLOAD,2023-02-02 04:26:05,15.08842294,0.0001285,53.2183,3.7916,94.297,265.8169,-7.3505e-05,-1.458e-05,0.0,0 STARLINK-5031,1 53889U 22119D   23033.18478292 -.00001458  00000-0 -73505-4 0  9994,2 53889  53.2183   3.7916 0001285  94.2970 265.8169 15.08842294 20440,6917.873,95.437,540.627,538.849,0.0
